STARLINK-1905
1 26746C 20074H   21325.10016934  .00019237  00000-0  12888-2 0  3251
2 26746  53.0530 167.7743 0001922  75.7719 146.4876 15.06381865    10
